CCSDS_OMM_VERS = 2.0
CREATION_DATE  = 
ORIGINATOR     = 

OBJECT_NAME    = STARLINK-36461
OBJECT_ID      = 2026-002M
CENTER_NAME    = EARTH
REF_FRAME      = TEME
TIME_SYSTEM    = UTC
MEAN_ELEMENT_THEORY = SGP/SGP4

EPOCH          = 2026-01-31T06:00:02.999808
MEAN_MOTION    = 15.50521290
ECCENTRICITY   = .0001825
INCLINATION    = 42.9994
RA_OF_ASC_NODE = 177.9852
ARG_OF_PERICENTER = 270.7678
MEAN_ANOMALY   = 255.2110

EPHEMERIS_TYPE = 0
CLASSIFICATION_TYPE = U
NORAD_CAT_ID   = 67316
ELEMENT_SET_NO = 999
REV_AT_EPOCH   = 555
BSTAR          = .11624354E-2
MEAN_MOTION_DOT = .6831E-3
MEAN_MOTION_DDOT = 0

CCSDS_OMM_VERS = 2.0
CREATION_DATE  = 
ORIGINATOR     = 

OBJECT_NAME    = STARLINK-36450
OBJECT_ID      = 2026-002N
CENTER_NAME    = EARTH
REF_FRAME      = TEME
TIME_SYSTEM    = UTC
MEAN_ELEMENT_THEORY = SGP/SGP4

EPOCH          = 2026-01-31T06:00:02.999808
MEAN_MOTION    = 15.50520724
ECCENTRICITY   = .00017392
INCLINATION    = 42.9992
RA_OF_ASC_NODE = 177.9814
ARG_OF_PERICENTER = 265.3008
MEAN_ANOMALY   = 262.5991

EPHEMERIS_TYPE = 0
CLASSIFICATION_TYPE = U
NORAD_CAT_ID   = 67317
ELEMENT_SET_NO = 999
REV_AT_EPOCH   = 555
BSTAR          = .11642979E-2
MEAN_MOTION_DOT = .6842E-3
MEAN_MOTION_DDOT = 0

CCSDS_OMM_VERS = 2.0
CREATION_DATE  = 
ORIGINATOR     = 

OBJECT_NAME    = STARLINK-36498
OBJECT_ID      = 2026-002P
CENTER_NAME    = EARTH
REF_FRAME      = TEME
TIME_SYSTEM    = UTC
MEAN_ELEMENT_THEORY = SGP/SGP4

EPOCH          = 2026-01-31T06:00:02.999808
MEAN_MOTION    = 15.50520657
ECCENTRICITY   = .00021458
INCLINATION    = 42.9995
RA_OF_ASC_NODE = 177.9702
ARG_OF_PERICENTER = 272.6115
MEAN_ANOMALY   = 259.1206

EPHEMERIS_TYPE = 0
CLASSIFICATION_TYPE = U
NORAD_CAT_ID   = 67318
ELEMENT_SET_NO = 999
REV_AT_EPOCH   = 546
BSTAR          = .11452447E-2
MEAN_MOTION_DOT = .67286E-3
MEAN_MOTION_DDOT = 0

CCSDS_OMM_VERS = 2.0
CREATION_DATE  = 
ORIGINATOR     = 

OBJECT_NAME    = STARLINK-36470
OBJECT_ID      = 2026-002Q
CENTER_NAME    = EARTH
REF_FRAME      = TEME
TIME_SYSTEM    = UTC
MEAN_ELEMENT_THEORY = SGP/SGP4

EPOCH          = 2026-01-31T06:00:02.999808
MEAN_MOTION    = 15.50515425
ECCENTRICITY   = .0001716
INCLINATION    = 42.9993
RA_OF_ASC_NODE = 177.9771
ARG_OF_PERICENTER = 264.2927
MEAN_ANOMALY   = 265.5222

EPHEMERIS_TYPE = 0
CLASSIFICATION_TYPE = U
NORAD_CAT_ID   = 67319
ELEMENT_SET_NO = 999
REV_AT_EPOCH   = 546
BSTAR          = .1379757E-2
MEAN_MOTION_DOT = .81263E-3
MEAN_MOTION_DDOT = 0

CCSDS_OMM_VERS = 2.0
CREATION_DATE  = 
ORIGINATOR     = 

OBJECT_NAME    = STARLINK-36500
OBJECT_ID      = 2026-002R
CENTER_NAME    = EARTH
REF_FRAME      = TEME
TIME_SYSTEM    = UTC
MEAN_ELEMENT_THEORY = SGP/SGP4

EPOCH          = 2026-01-31T06:00:02.999808
MEAN_MOTION    = 15.50514414
ECCENTRICITY   = .00017179
INCLINATION    = 42.9992
RA_OF_ASC_NODE = 177.9682
ARG_OF_PERICENTER = 260.1372
MEAN_ANOMALY   = 273.5161

EPHEMERIS_TYPE = 0
CLASSIFICATION_TYPE = U
NORAD_CAT_ID   = 67320
ELEMENT_SET_NO = 999
REV_AT_EPOCH   = 546
BSTAR          = .13737958E-2
MEAN_MOTION_DOT = .80904E-3
MEAN_MOTION_DDOT = 0

CCSDS_OMM_VERS = 2.0
CREATION_DATE  = 
ORIGINATOR     = 

OBJECT_NAME    = STARLINK-36462
OBJECT_ID      = 2026-002S
CENTER_NAME    = EARTH
REF_FRAME      = TEME
TIME_SYSTEM    = UTC
MEAN_ELEMENT_THEORY = SGP/SGP4

EPOCH          = 2026-01-31T06:00:02.999808
MEAN_MOTION    = 15.50517936
ECCENTRICITY   = .0001703
INCLINATION    = 42.9992
RA_OF_ASC_NODE = 177.9576
ARG_OF_PERICENTER = 264.5784
MEAN_ANOMALY   = 272.9033

EPHEMERIS_TYPE = 0
CLASSIFICATION_TYPE = U
NORAD_CAT_ID   = 67321
ELEMENT_SET_NO = 999
REV_AT_EPOCH   = 540
BSTAR          = .13343771E-2
MEAN_MOTION_DOT = .78559E-3
MEAN_MOTION_DDOT = 0

CCSDS_OMM_VERS = 2.0
CREATION_DATE  = 
ORIGINATOR     = 

OBJECT_NAME    = STARLINK-36434
OBJECT_ID      = 2026-002T
CENTER_NAME    = EARTH
REF_FRAME      = TEME
TIME_SYSTEM    = UTC
MEAN_ELEMENT_THEORY = SGP/SGP4

EPOCH          = 2026-01-31T06:00:02.999808
MEAN_MOTION    = 15.50521554
ECCENTRICITY   = .00016545
INCLINATION    = 42.9991
RA_OF_ASC_NODE = 177.9622
ARG_OF_PERICENTER = 266.1125
MEAN_ANOMALY   = 269.4558

EPHEMERIS_TYPE = 0
CLASSIFICATION_TYPE = U
NORAD_CAT_ID   = 67322
ELEMENT_SET_NO = 999
REV_AT_EPOCH   = 540
BSTAR          = .11269272E-2
MEAN_MOTION_DOT = .66195E-3
MEAN_MOTION_DDOT = 0

CCSDS_OMM_VERS = 2.0
CREATION_DATE  = 
ORIGINATOR     = 

OBJECT_NAME    = STARLINK-36497
OBJECT_ID      = 2026-002U
CENTER_NAME    = EARTH
REF_FRAME      = TEME
TIME_SYSTEM    = UTC
MEAN_ELEMENT_THEORY = SGP/SGP4

EPOCH          = 2026-01-31T06:00:02.999808
MEAN_MOTION    = 15.50522264
ECCENTRICITY   = .00022786
INCLINATION    = 42.9992
RA_OF_ASC_NODE = 177.9519
ARG_OF_PERICENTER = 274.8795
MEAN_ANOMALY   = 264.5210

EPHEMERIS_TYPE = 0
CLASSIFICATION_TYPE = U
NORAD_CAT_ID   = 67323
ELEMENT_SET_NO = 999
REV_AT_EPOCH   = 546
BSTAR          = .11146918E-2
MEAN_MOTION_DOT = .65471E-3
MEAN_MOTION_DDOT = 0

CCSDS_OMM_VERS = 2.0
CREATION_DATE  = 
ORIGINATOR     = 

OBJECT_NAME    = STARLINK-36471
OBJECT_ID      = 2026-002V
CENTER_NAME    = EARTH
REF_FRAME      = TEME
TIME_SYSTEM    = UTC
MEAN_ELEMENT_THEORY = SGP/SGP4

EPOCH          = 2026-01-31T06:00:02.999808
MEAN_MOTION    = 15.50523170
ECCENTRICITY   = .00022249
INCLINATION    = 42.9991
RA_OF_ASC_NODE = 177.9425
ARG_OF_PERICENTER = 274.9650
MEAN_ANOMALY   = 268.2678

EPHEMERIS_TYPE = 0
CLASSIFICATION_TYPE = U
NORAD_CAT_ID   = 67324
ELEMENT_SET_NO = 999
REV_AT_EPOCH   = 540
BSTAR          = .11139244E-2
MEAN_MOTION_DOT = .65427E-3
MEAN_MOTION_DDOT = 0

CCSDS_OMM_VERS = 2.0
CREATION_DATE  = 
ORIGINATOR     = 

OBJECT_NAME    = STARLINK-36473
OBJECT_ID      = 2026-002W
CENTER_NAME    = EARTH
REF_FRAME      = TEME
TIME_SYSTEM    = UTC
MEAN_ELEMENT_THEORY = SGP/SGP4

EPOCH          = 2026-01-31T06:00:02.999808
MEAN_MOTION    = 15.50525794
ECCENTRICITY   = .0002149
INCLINATION    = 42.9993
RA_OF_ASC_NODE = 177.9476
ARG_OF_PERICENTER = 279.1936
MEAN_ANOMALY   = 262.0941

EPHEMERIS_TYPE = 0
CLASSIFICATION_TYPE = U
NORAD_CAT_ID   = 67325
ELEMENT_SET_NO = 999
REV_AT_EPOCH   = 555
BSTAR          = .14857549E-2
MEAN_MOTION_DOT = .87638E-3
MEAN_MOTION_DDOT = 0

CCSDS_OMM_VERS = 2.0
CREATION_DATE  = 
ORIGINATOR     = 

OBJECT_NAME    = STARLINK-36430
OBJECT_ID      = 2026-002X
CENTER_NAME    = EARTH
REF_FRAME      = TEME
TIME_SYSTEM    = UTC
MEAN_ELEMENT_THEORY = SGP/SGP4

EPOCH          = 2026-01-31T06:00:02.999808
MEAN_MOTION    = 15.50521617
ECCENTRICITY   = .00022939
INCLINATION    = 42.9993
RA_OF_ASC_NODE = 177.9319
ARG_OF_PERICENTER = 275.6688
MEAN_ANOMALY   = 271.4008

EPHEMERIS_TYPE = 0
CLASSIFICATION_TYPE = U
NORAD_CAT_ID   = 67326
ELEMENT_SET_NO = 999
REV_AT_EPOCH   = 555
BSTAR          = .11149099E-2
MEAN_MOTION_DOT = .65482E-3
MEAN_MOTION_DDOT = 0

CCSDS_OMM_VERS = 2.0
CREATION_DATE  = 
ORIGINATOR     = 

OBJECT_NAME    = STARLINK-36501
OBJECT_ID      = 2026-002Y
CENTER_NAME    = EARTH
REF_FRAME      = TEME
TIME_SYSTEM    = UTC
MEAN_ELEMENT_THEORY = SGP/SGP4

EPOCH          = 2026-01-31T06:00:02.999808
MEAN_MOTION    = 15.50520722
ECCENTRICITY   = .00022832
INCLINATION    = 42.9991
RA_OF_ASC_NODE = 177.9377
ARG_OF_PERICENTER = 275.3307
MEAN_ANOMALY   = 269.8220

EPHEMERIS_TYPE = 0
CLASSIFICATION_TYPE = U
NORAD_CAT_ID   = 67327
ELEMENT_SET_NO = 999
REV_AT_EPOCH   = 540
BSTAR          = .11340196E-2
MEAN_MOTION_DOT = .66618E-3
MEAN_MOTION_DDOT = 0

