STARLINK-36461          
1 67316U 26002M   26031.25003472  .00068310  00000+0  11624-2 0  9991
2 67316  42.9994 177.9852 0001825 270.7678 255.2110 15.50521290  5555
STARLINK-36450          
1 67317U 26002N   26031.25003472  .00068420  00000+0  11643-2 0  9995
2 67317  42.9992 177.9814 0001739 265.3008 262.5991 15.50520724  5552
STARLINK-36498          
1 67318U 26002P   26031.25003472  .00067286  00000+0  11452-2 0  9993
2 67318  42.9995 177.9702 0002145 272.6115 259.1206 15.50520657  5460
STARLINK-36470          
1 67319U 26002Q   26031.25003472  .00081263  00000+0  13798-2 0  9990
2 67319  42.9993 177.9771 0001716 264.2927 265.5222 15.50515425  5462
STARLINK-36500          
1 67320U 26002R   26031.25003472  .00080904  00000+0  13738-2 0  9997
2 67320  42.9992 177.9682 0001717 260.1372 273.5161 15.50514414  5462
STARLINK-36462          
1 67321U 26002S   26031.25003472  .00078559  00000+0  13344-2 0  9994
2 67321  42.9992 177.9576 0001703 264.5784 272.9033 15.50517936  5402
STARLINK-36434          
1 67322U 26002T   26031.25003472  .00066195  00000+0  11269-2 0  9992
2 67322  42.9991 177.9622 0001654 266.1125 269.4558 15.50521554  5400
STARLINK-36497          
1 67323U 26002U   26031.25003472  .00065471  00000+0  11147-2 0  9994
2 67323  42.9992 177.9519 0002278 274.8795 264.5210 15.50522264  5465
STARLINK-36471          
1 67324U 26002V   26031.25003472  .00065427  00000+0  11139-2 0  9997
2 67324  42.9991 177.9425 0002224 274.9650 268.2678 15.50523170  5403
STARLINK-36473          
1 67325U 26002W   26031.25003472  .00087638  00000+0  14858-2 0  9997
2 67325  42.9993 177.9476 0002149 279.1936 262.0941 15.50525794  5557
STARLINK-36430          
1 67326U 26002X   26031.25003472  .00065482  00000+0  11149-2 0  9991
2 67326  42.9993 177.9319 0002293 275.6688 271.4008 15.50521617  5557
STARLINK-36501          
1 67327U 26002Y   26031.25003472  .00066618  00000+0  11340-2 0  9997
2 67327  42.9991 177.9377 0002283 275.3307 269.8220 15.50520722  5401
